[{"OBJECT_NAME":"IRIDIUM 120","OBJECT_ID":"2017-039C","EPOCH":"2026-03-09T21:12:27.197568","MEAN_MOTION":14.34217759,"ECCENTRICITY":0.00021079,"INCLINATION":86.4016,"RA_OF_ASC_NODE":3.4651,"ARG_OF_PERICENTER":89.0553,"MEAN_ANOMALY":271.0885,"EPHEMERIS_TYPE":0,"CLASSIFICATION_TYPE":"U","NORAD_CAT_ID":42805,"ELEMENT_SET_NO":999,"REV_AT_EPOCH":45694,"BSTAR":1.4790436e-5,"MEAN_MOTION_DOT":6.1e-7,"MEAN_MOTION_DDOT":0},{"OBJECT_NAME":"CZ-6A DEB","OBJECT_ID":"2022-151WS","EPOCH":"2026-03-09T02:42:51.329376","MEAN_MOTION":14.57649521,"ECCENTRICITY":0.01244434,"INCLINATION":98.7356,"RA_OF_ASC_NODE":130.8242,"ARG_OF_PERICENTER":313.8345,"MEAN_ANOMALY":45.2618,"EPHEMERIS_TYPE":0,"CLASSIFICATION_TYPE":"U","NORAD_CAT_ID":55225,"ELEMENT_SET_NO":999,"REV_AT_EPOCH":16926,"BSTAR":0.002246172,"MEAN_MOTION_DOT":0.0001135,"MEAN_MOTION_DDOT":0}]
